STARLINK-37871          
1 69549U 26135D   26176.16667823 -.00088887  00000+0 -46694-3 0  9993
2 69549  97.2841 203.6281 0001151  95.5795 132.1009 15.80867733  2596
STARLINK-37865          
1 69550U 26135E   26176.16667823 -.00078105  00000+0 -40982-3 0  9991
2 69550  97.2839 203.6314 0000938 105.8316 130.0630 15.80862029  2598
STARLINK-37862          
1 69551U 26135F   26176.16667823 -.00081432  00000+0 -42751-3 0  9995
2 69551  97.2837 203.6382 0000679  98.0882 153.7446 15.80860806  2593
STARLINK-37861          
1 69552U 26135G   26176.16667823 -.00088169  00000+0 -46310-3 0  9995
2 69552  97.2835 203.6433 0001291  79.0039 183.6485 15.80868771  2597
STARLINK-37859          
1 69553U 26135H   26176.16667823 -.00068450  00000+0 -35872-3 0  9998
2 69553  97.2837 203.6449 0001212  78.9693 189.0099 15.80858849  2590
STARLINK-37860          
1 69554U 26135J   26176.16667823 -.00073594  00000+0 -38586-3 0  9999
2 69554  97.2839 203.6460 0001262  84.5847 184.9554 15.80864466  2597
STARLINK-37858          
1 69555U 26135K   26176.16667823 -.00077205  00000+0 -40508-3 0  9990
2 69555  97.2836 203.6507 0000877  73.0559 206.8094 15.80860525  2596
STARLINK-37927          
1 69556U 26135L   26176.16667823 -.00069622  00000+0 -36495-3 0  9995
2 69556  97.2834 203.6512 0000759  70.3870 210.8467 15.80858061  2597
STARLINK-37929          
1 69557U 26135M   26176.16667823 -.00087359  00000+0 -45880-3 0  9991
2 69557  97.2835 203.6533 0001402  88.4530 197.5281 15.80868126  2599
STARLINK-37954          
1 69558U 26135N   26176.16667823 -.00079160  00000+0 -41544-3 0  9996
2 69558  97.2834 203.6561 0000765  90.0130 202.9104 15.80861469  2594
STARLINK-37958          
1 69559U 26135P   26176.16667823 -.00073895  00000+0 -38755-3 0  9996
2 69559  97.2831 203.6623 0000789  82.8551 224.0852 15.80859953  2593
STARLINK-37950          
1 69560U 26135Q   26176.16667823 -.00087195  00000+0 -45802-3 0  9997
2 69560  97.2832 203.6623 0001066  88.9816 218.7815 15.80864341  2592
STARLINK-37952          
1 69561U 26135R   26176.16667823 -.00089362  00000+0 -46942-3 0  9992
2 69561  97.2832 203.6658 0001311  84.5660 231.1462 15.80869580  2590
STARLINK-37935          
1 69562U 26135S   26176.16667823 -.00053342  00000+0 -27896-3 0  9999
2 69562  97.2830 203.6683 0000569  92.2358 227.8695 15.80855217  2593
STARLINK-37936          
1 69563U 26135T   26176.16667823 -.00088837  00000+0 -46678-3 0  9996
2 69563  97.2829 203.6848 0001177  92.3652 267.6564 15.80862886  2596
STARLINK-37932          
1 69564U 26135U   26176.16667823 -.00086046  00000+0 -45204-3 0  9991
2 69564  97.2830 203.6860 0001256  92.2139 269.8454 15.80857984  2595
STARLINK-37916          
1 69565U 26135V   26176.16667823 -.00095665  00000+0 -50301-3 0  9993
2 69565  97.2829 203.6872 0001043  91.0614 274.1048 15.80867392  2598
STARLINK-37909          
1 69566U 26135W   26176.16667823 -.00134804  00000+0 -71220-3 0  9996
2 69566  97.2826 203.7024 0001207  90.4739 310.5972 15.80869499  2590
STARLINK-37934          
1 69567U 26135X   26176.16667823 -.00058233  00000+0 -30487-3 0  9998
2 69567  97.2827 203.6950 0001377  86.8412 296.0080 15.80846443  2596
STARLINK-37938          
1 69568U 26135Y   26176.16667823 -.00106672  00000+0 -56165-3 0  9991
2 69568  97.2827 203.7005 0000596  80.0265 316.7169 15.80869238  2598
STARLINK-37924          
1 69569U 26135Z   26176.16667823 -.00106430  00000+0 -55833-3 0  9995
2 69569  97.2825 203.7074 0001430  94.0590 318.3561 15.80946512  2592
SHIJIAN-31 (SJ-31)      
1 69570U 26136A   26175.77779955  .00000236  00000+0  00000+0 0  9991
2 69570  63.4756 355.2957 6941146 171.7615 212.4716  1.92222602   239
GUOWANG OBJECT A        
1 69572U 26137A   26175.62604037  .00000074  00000+0  17259-3 0  9994
2 69572  50.0003 225.7306 0012385 251.0733 108.8824 13.91753886  1052
GUOWANG OBJECT B        
1 69573U 26137B   26174.83590509  .00000001  00000+0  11551-3 0  9994
2 69573  49.9996 228.8805 0012216 246.1111 113.8509 13.91680979   953
GUOWANG OBJECT C        
1 69574U 26137C   26174.83534770  .00000021  00000+0  13047-3 0  9997
2 69574  49.9966 228.8693 0011748 247.5683 112.3972 13.91926738   958
GUOWANG OBJECT D        
1 69575U 26137D   26174.83505179 -.00000015  00000+0  10293-3 0  9993
2 69575  49.9953 228.8664 0011266 246.4044 113.5673 13.91996521   955
GUOWANG OBJECT E        
1 69576U 26137E   26174.83494681 -.00000011  00000+0  10580-3 0  9994
2 69576  50.0010 228.8817 0011090 249.4781 110.4929 13.92014313   950
GUOWANG OBJECT F        
1 69577U 26137F   26174.83436825 -.00000012  00000+0  10474-3 0  9994
2 69577  50.0004 228.8772 0010555 250.9734 109.0022 13.92131150   951
GUOWANG OBJECT G        
1 69578U 26137G   26174.83417053 -.00000033  00000+0  88725-4 0  9995
2 69578  49.9954 228.8625 0010446 250.5281 109.4490 13.92175617   951
