OBJECT_NAME,OBJECT_ID,EPOCH,MEAN_MOTION,ECCENTRICITY,INCLINATION,RA_OF_ASC_NODE,ARG_OF_PERICENTER,MEAN_ANOMALY,EPHEMERIS_TYPE,CLASSIFICATION_TYPE,NORAD_CAT_ID,ELEMENT_SET_NO,REV_AT_EPOCH,BSTAR,MEAN_MOTION_DOT,MEAN_MOTION_DDOT
STARLINK-37871,2026-135D,2026-06-25T04:00:00.999072,15.80867733,.0001151,97.2841,203.6281,95.5795,132.1009,0,U,69549,999,259,-.46694E-3,-.88887E-3,0
STARLINK-37865,2026-135E,2026-06-25T04:00:00.999072,15.80862029,.0000938,97.2839,203.6314,105.8316,130.0630,0,U,69550,999,259,-.40982E-3,-.78105E-3,0
STARLINK-37862,2026-135F,2026-06-25T04:00:00.999072,15.80860806,.0000679,97.2837,203.6382,98.0882,153.7446,0,U,69551,999,259,-.42751E-3,-.81432E-3,0
STARLINK-37861,2026-135G,2026-06-25T04:00:00.999072,15.80868771,.0001291,97.2835,203.6433,79.0039,183.6485,0,U,69552,999,259,-.4631E-3,-.88169E-3,0
STARLINK-37859,2026-135H,2026-06-25T04:00:00.999072,15.80858849,.0001212,97.2837,203.6449,78.9693,189.0099,0,U,69553,999,259,-.35872E-3,-.6845E-3,0
STARLINK-37860,2026-135J,2026-06-25T04:00:00.999072,15.80864466,.0001262,97.2839,203.6460,84.5847,184.9554,0,U,69554,999,259,-.38586E-3,-.73594E-3,0
STARLINK-37858,2026-135K,2026-06-25T04:00:00.999072,15.80860525,.0000877,97.2836,203.6507,73.0559,206.8094,0,U,69555,999,259,-.40508E-3,-.77205E-3,0
STARLINK-37927,2026-135L,2026-06-25T04:00:00.999072,15.80858061,.0000759,97.2834,203.6512,70.3870,210.8467,0,U,69556,999,259,-.36495E-3,-.69622E-3,0
STARLINK-37929,2026-135M,2026-06-25T04:00:00.999072,15.80868126,.0001402,97.2835,203.6533,88.4530,197.5281,0,U,69557,999,259,-.4588E-3,-.87359E-3,0
STARLINK-37954,2026-135N,2026-06-25T04:00:00.999072,15.80861469,.0000765,97.2834,203.6561,90.0130,202.9104,0,U,69558,999,259,-.41544E-3,-.7916E-3,0
STARLINK-37958,2026-135P,2026-06-25T04:00:00.999072,15.80859953,.0000789,97.2831,203.6623,82.8551,224.0852,0,U,69559,999,259,-.38755E-3,-.73895E-3,0
STARLINK-37950,2026-135Q,2026-06-25T04:00:00.999072,15.80864341,.0001066,97.2832,203.6623,88.9816,218.7815,0,U,69560,999,259,-.45802E-3,-.87195E-3,0
STARLINK-37952,2026-135R,2026-06-25T04:00:00.999072,15.80869580,.0001311,97.2832,203.6658,84.5660,231.1462,0,U,69561,999,259,-.46942E-3,-.89362E-3,0
STARLINK-37935,2026-135S,2026-06-25T04:00:00.999072,15.80855217,.0000569,97.2830,203.6683,92.2358,227.8695,0,U,69562,999,259,-.27896E-3,-.53342E-3,0
STARLINK-37936,2026-135T,2026-06-25T04:00:00.999072,15.80862886,.0001177,97.2829,203.6848,92.3652,267.6564,0,U,69563,999,259,-.46678E-3,-.88837E-3,0
STARLINK-37932,2026-135U,2026-06-25T04:00:00.999072,15.80857984,.0001256,97.2830,203.6860,92.2139,269.8454,0,U,69564,999,259,-.45204E-3,-.86046E-3,0
STARLINK-37916,2026-135V,2026-06-25T04:00:00.999072,15.80867392,.0001043,97.2829,203.6872,91.0614,274.1048,0,U,69565,999,259,-.50301E-3,-.95665E-3,0
STARLINK-37909,2026-135W,2026-06-25T04:00:00.999072,15.80869499,.0001207,97.2826,203.7024,90.4739,310.5972,0,U,69566,999,259,-.7122E-3,-.134804E-2,0
STARLINK-37934,2026-135X,2026-06-25T04:00:00.999072,15.80846443,.0001377,97.2827,203.6950,86.8412,296.0080,0,U,69567,999,259,-.30487E-3,-.58233E-3,0
STARLINK-37938,2026-135Y,2026-06-25T04:00:00.999072,15.80869238,.0000596,97.2827,203.7005,80.0265,316.7169,0,U,69568,999,259,-.56165E-3,-.106672E-2,0
STARLINK-37924,2026-135Z,2026-06-25T04:00:00.999072,15.80946512,.000143,97.2825,203.7074,94.0590,318.3561,0,U,69569,999,259,-.55833E-3,-.10643E-2,0
SHIJIAN-31 (SJ-31),2026-136A,2026-06-24T18:40:01.881120,1.92222602,.6941146,63.4756,355.2957,171.7615,212.4716,0,U,69570,999,23,0,.236E-5,0
GUOWANG OBJECT A,2026-137A,2026-06-24T15:01:29.887968,13.91753886,.0012385,50.0003,225.7306,251.0733,108.8824,0,U,69572,999,105,.17259E-3,.74E-6,0
GUOWANG OBJECT B,2026-137B,2026-06-23T20:03:42.199776,13.91680979,.00122169,49.9996,228.8805,246.1111,113.8509,0,U,69573,999,95,.11551312E-3,.1E-7,0
GUOWANG OBJECT C,2026-137C,2026-06-23T20:02:54.041280,13.91926738,.00117485,49.9966,228.8693,247.5683,112.3972,0,U,69574,999,95,.13046689E-3,.21E-6,0
GUOWANG OBJECT D,2026-137D,2026-06-23T20:02:28.474656,13.91996521,.00112663,49.9953,228.8664,246.4044,113.5673,0,U,69575,999,95,.10293014E-3,-.15E-6,0
GUOWANG OBJECT E,2026-137E,2026-06-23T20:02:19.404384,13.92014313,.00110907,50.0010,228.8817,249.4781,110.4929,0,U,69576,999,95,.10580231E-3,-.11E-6,0
GUOWANG OBJECT F,2026-137F,2026-06-23T20:01:29.416800,13.92131150,.00105557,50.0004,228.8772,250.9734,109.0022,0,U,69577,999,95,.10474037E-3,-.12E-6,0
GUOWANG OBJECT G,2026-137G,2026-06-23T20:01:12.333792,13.92175617,.00104468,49.9954,228.8625,250.5281,109.4490,0,U,69578,999,95,.88724714E-4,-.33E-6,0
